[{"OBJECT_NAME":"SPIP","OBJECT_ID":"2023-174AU","EPOCH":"2026-03-09T22:52:46.383168","MEAN_MOTION":15.26695413,"ECCENTRICITY":0.00100427,"INCLINATION":97.3901,"RA_OF_ASC_NODE":146.4534,"ARG_OF_PERICENTER":168.1112,"MEAN_ANOMALY":192.0366,"EPHEMERIS_TYPE":0,"CLASSIFICATION_TYPE":"U","NORAD_CAT_ID":58298,"ELEMENT_SET_NO":999,"REV_AT_EPOCH":12963,"BSTAR":0.00025731582,"MEAN_MOTION_DOT":6.692e-5,"MEAN_MOTION_DDOT":0},{"OBJECT_NAME":"STARLINK-35962","OBJECT_ID":"2025-265C","EPOCH":"2026-03-09T13:59:03.583968","MEAN_MOTION":15.27598219,"ECCENTRICITY":7.99e-5,"INCLINATION":42.996,"RA_OF_ASC_NODE":278.8397,"ARG_OF_PERICENTER":352.4259,"MEAN_ANOMALY":7.6581,"EPHEMERIS_TYPE":0,"CLASSIFICATION_TYPE":"U","NORAD_CAT_ID":66518,"ELEMENT_SET_NO":999,"REV_AT_EPOCH":1709,"BSTAR":0.00097121,"MEAN_MOTION_DOT":0.00026575,"MEAN_MOTION_DDOT":0}]
